[{"OBJECT_NAME":"STARLINK-30165","OBJECT_ID":"2023-107A","EPOCH":"2026-03-09T03:47:33.839520","MEAN_MOTION":15.26736421,"ECCENTRICITY":0.00014984,"INCLINATION":42.9999,"RA_OF_ASC_NODE":339.2931,"ARG_OF_PERICENTER":275.8397,"MEAN_ANOMALY":84.2284,"EPHEMERIS_TYPE":0,"CLASSIFICATION_TYPE":"U","NORAD_CAT_ID":57457,"ELEMENT_SET_NO":999,"REV_AT_EPOCH":14505,"BSTAR":7.0020691e-5,"MEAN_MOTION_DOT":1.619e-5,"MEAN_MOTION_DDOT":0},{"OBJECT_NAME":"OV1-9 R\/B","OBJECT_ID":"1966-111D","EPOCH":"2026-03-09T11:11:11.790816","MEAN_MOTION":10.49794392,"ECCENTRICITY":0.22219732,"INCLINATION":99.1017,"RA_OF_ASC_NODE":33.3571,"ARG_OF_PERICENTER":215.4287,"MEAN_ANOMALY":127.6991,"EPHEMERIS_TYPE":0,"CLASSIFICATION_TYPE":"U","NORAD_CAT_ID":2622,"ELEMENT_SET_NO":999,"REV_AT_EPOCH":23443,"BSTAR":0.00023551925,"MEAN_MOTION_DOT":5.76e-6,"MEAN_MOTION_DDOT":0}]
